IRIDIUM 159             
1 43578U 18061K   23307.88914449  .00000044  00000+0  85059-5 0  9994
2 43578  86.3929  96.3859 0001977  90.9694 269.1728 14.34215971276318
IRIDIUM 180             
1 43922U 19002A   23308.16771939  .00000538  00000+0  18485-3 0  9995
2 43922  86.4013  33.1300 0002336  90.8917 269.2547 14.34220739252001
IRIDIUM 176             
1 43923U 19002B   23307.30952902  .00001807  00000+0  28276-3 0  9991
2 43923  86.6141  33.5212 0002325  91.8729 268.2754 14.72247451258469
IRIDIUM 168             
1 43924U 19002C   23307.74276251  .00000115  00000+0  33993-4 0  9990
2 43924  86.4015  33.3576 0002240  91.7158 268.4294 14.34214476251889
IRIDIUM 173             
1 43925U 19002D   23307.79984687  .00000109  00000+0  31994-4 0  9997
2 43925  86.4012  33.2619 0002084  91.3095 268.8340 14.34213886251875
IRIDIUM 169             
1 43926U 19002E   23308.06903487  .00000666  00000+0  21124-3 0  9999
2 43926  86.4229  64.7588 0001333 222.6502 137.4593 14.38610285252766
IRIDIUM 172             
1 43927U 19002F   23307.79350658  .00000534  00000+0  18366-3 0  9993
2 43927  86.4012  33.2695 0002167  91.6511 268.4933 14.34218489251888
IRIDIUM 175             
1 43928U 19002G   23307.64328630  .00001774  00000+0  27750-3 0  9997
2 43928  86.1555  19.3395 0002219  93.9158 266.2312 14.72238709258502
